{"version": 0.6, "generator": "Overpass API 0.7.62.5 1bd436f1", "osm3s": {"timestamp_osm_base": "2025-05-25T07:55:59Z", "copyright": "The data included in this document is from www.openstreetmap.org. The data is made available under ODbL."}, "elements": [{"type": "node", "id": 431896692, "lat": 32.228804, "lon": 35.3027046, "tags": {"amenity": "school", "name": "Othman Bin Afan School For Boys", "name:ar": "\u0645\u062f\u0631\u0633\u0629 \u0639\u062b\u0645\u0627\u0646 \u0628\u0646 \u0639\u0641\u0627\u0646 \u0644\u0644\u0630\u0643\u0648\u0631"}}, {"type": "node", "id": 431902798, "lat": 32.217827, "lon": 35.2931657, "tags": {"amenity": "school", "name": "Nablus Industrial Secondary School", "name:ar": "\u0645\u062f\u0631\u0633\u0629 \u0646\u0627\u0628\u0644\u0633 \u0627\u0644\u062b\u0627\u0646\u0648\u064a\u0647 \u0627\u0644\u0635\u0646\u0627\u0639\u064a\u0629"}}, {"type": "node", "id": 431915904, "lat": 32.2267947, "lon": 35.3009797, "tags": {"amenity": "school", "name": "Abu Baker Al Sedeq School", "name:ar": "\u0645\u062f\u0631\u0633\u0629 \u0627\u0628\u0648 \u0628\u0643\u0631 \u0627\u0644\u0635\u062f\u064a\u0642"}}, {"type": "node", "id": 431923385, "lat": 32.2156446, "lon": 35.2767107, "tags": {"amenity": "school", "name": "Naji Sabha Elemintary School For Girls", "name:ar": "\u0645\u062f\u0631\u0633\u0629 \u0646\u0627\u062c\u064a \u0635\u0628\u062d\u0629 \u0627\u0644\u0627\u0633\u0627\u0633\u064a\u0629 \u0644\u0644\u0628\u0646\u0627\u062a"}}, {"type": "node", "id": 431928733, "lat": 32.2130223, "lon": 35.2775535, "tags": {"amenity": "library", "name": "Dar Al Farok For Copping And Newspaper", "name:ar": "\u062f\u0627\u0631 \u0627\u0644\u0641\u0627\u0631\u0648\u0642 \u0644\u0644\u0646\u0634\u0631"}}, {"type": "node", "id": 431972656, "lat": 32.2140033, "lon": 35.285456, "tags": {"amenity": "school", "name": "Bassam Al Shak'a Secondary School For Boys", "name:ar": "\u0645\u062f\u0631\u0633\u0629 \u0628\u0633\u0627\u0645 \u0627\u0644\u0634\u0639\u0643\u0647 \u0627\u0644\u062b\u0627\u0646\u0648\u064a\u0629 \u0644\u0644\u0628\u0646\u064a\u0646"}}, {"type": "node", "id": 431981780, "lat": 32.2140099, "lon": 35.2768016, "tags": {"amenity": "library", "name": "Al Quds Newspaper", "name:ar": "\u0635\u062d\u064a\u0641\u0629 \u0627\u0644\u0642\u062f\u0633"}}, {"type": "node", "id": 431985696, "lat": 32.2296029, "lon": 35.3011831, "tags": {"amenity": "kindergarten", "name": "ALkuther", "name:ar": "\u0631\u0648\u0636\u0629 \u0627\u0637\u0641\u0627\u0644 \u0627\u0644\u0643\u0648\u062b\u0631"}}, {"type": "node", "id": 431989277, "lat": 32.2118099, "lon": 35.2777494, "tags": {"amenity": "school", "name": "Islamic School For Boys", "name:ar": "\u0627\u0644\u0645\u062f\u0631\u0633\u0629 \u0627\u0644\u0627\u0633\u0644\u0627\u0645\u064a\u0629 \u0644\u0644\u0628\u0646\u064a\u0646", "opening_hours": "Su-Th 07:00-13:10", "operator": "\u062c\u0645\u0639\u064a\u0629\u0627\u0644\u062a\u0636\u0627\u0645\u0646 \u0627\u0644\u062e\u064a\u0631\u064a\u0629", "website": "http://212.14.238.196:81/LoginPage.aspx"}}, {"type": "node", "id": 432005024, "lat": 32.213992, "lon": 35.2860004, "tags": {"amenity": "school", "name": "Qadri Tuqan Elementary School For Boys", "name:ar": "\u0645\u062f\u0631\u0633\u0629 \u0642\u062f\u0631\u064a \u0637\u0648\u0642\u0627\u0646 \u0627\u0644\u0627\u0633\u0627\u0633\u064a\u0629 \u0644\u0644\u0628\u0646\u064a\u0646"}}, {"type": "node", "id": 432005062, "lat": 32.2190771, "lon": 35.3017449, "tags": {"amenity": "kindergarten", "name": "Dreams", "name:ar": "\u0631\u0648\u0636\u0629 \u0627\u0644\u0627\u062d\u0644\u0627\u0645"}}, {"type": "node", "id": 432064821, "lat": 32.2223918, "lon": 35.2990362, "tags": {"amenity": "school", "name": "Askar Elemintary School For Girls", "name:ar": "\u0645\u062f\u0631\u0633\u0629 \u0639\u0633\u0643\u0631 \u0627\u0644\u0627\u0633\u0627\u0633\u064a\u0629 \u0644\u0644\u0628\u0646\u0627\u062a", "name:en": "Askar Basic Girls School"}}, {"type": "node", "id": 432084385, "lat": 32.2206663, "lon": 35.2905374, "tags": {"amenity": "school"}}, {"type": "node", "id": 432109962, "lat": 32.2135724, "lon": 35.285456, "tags": {"amenity": "school", "name": "Al Haj Mazoz Al Masri Secondary School For Girls", "name:ar": "\u0645\u062f\u0631\u0633\u0629 \u0627\u0644\u062d\u0627\u062c \u0645\u0639\u0632\u0648\u0632 \u0627\u0644\u0645\u0635\u0631\u064a \u0627\u0644\u062b\u0627\u0646\u0648\u064a\u0629 \u0644\u0644\u0628\u0646\u0627\u062a"}}, {"type": "node", "id": 432124253, "lat": 32.2290485, "lon": 35.3046452, "tags": {"amenity": "kindergarten", "name": "Al Somood", "name:ar": "\u0631\u0648\u0636\u0629 \u0627\u0644\u0635\u0645\u0648\u062f"}}, {"type": "node", "id": 432150370, "lat": 32.2249319, "lon": 35.3014922, "tags": {"amenity": "kindergarten", "name": "Al Sanabil", "name:ar": "\u0631\u0648\u0636\u0629 \u0627\u0637\u0641\u0627\u0644 \u0627\u0644\u0633\u0646\u0627\u0628\u0644"}}, {"type": "node", "id": 432165958, "lat": 32.229592, "lon": 35.3036544, "tags": {"amenity": "school", "name": "Al Najah Elemintary Mix School", "name:ar": "\u0645\u062f\u0631\u0633\u0629 \u0627\u0644\u0646\u062c\u0627\u062d \u0627\u0644\u0627\u0633\u0627\u0633\u064a\u0647 \u0627\u0644\u0645\u062e\u062a\u0644\u0637\u0629"}}, {"type": "node", "id": 432175291, "lat": 32.215753, "lon": 35.2965897, "tags": {"addr:street": "Vegetable Market Street", "amenity": "college", "name": "Hisham Hijjawi", "name:ar": "\u0643\u0644\u064a\u0629 \u0647\u0634\u0627\u0645 \u0627\u0644\u062d\u062c\u0627\u0648\u064a", "opening_hours": "Su-Th 08:00-16:00", "website": "http://www.najah.edu"}}, {"type": "node", "id": 4414867992, "lat": 32.2209533, "lon": 35.2982191, "tags": {"amenity": "school", "name": "\u0645\u062f\u0631\u0633\u0629 \u0627\u0644\u0623\u0645\u0647\u0627\u062a", "name:ar": "\u0645\u062f\u0631\u0633\u0629 \u0627\u0644\u0623\u0645\u0647\u0627\u062a", "name:en": "Mothers' school"}}, {"type": "node", "id": 4426661591, "lat": 32.2193601, "lon": 35.2976698, "tags": {"amenity": "school", "name": "\u0630\u0643\u0648\u0631 \u0639\u0633\u0643\u0631 \u0623\u0644\u0627\u0633\u0627\u0633\u064a\u0647"}}, {"type": "node", "id": 4664352995, "lat": 32.2168431, "lon": 35.273801, "tags": {"amenity": "school", "name": "\u0643\u0644\u064a\u0629 \u0627\u0644\u0631\u0648\u0636\u0629", "name:en": "alrawdah college"}}, {"type": "node", "id": 4864583521, "lat": 32.2154286, "lon": 35.27604, "tags": {"addr:street": "Amman Street", "amenity": "school", "name:en": "Amideast", "opening_hours": "Sa-Th 10:00-17:00"}}, {"type": "node", "id": 8955456917, "lat": 32.2174366, "lon": 35.2926856, "tags": {"addr:street": "\u0634\u0627\u0631\u0639 \u0643\u0644\u064a\u0629 \u0647\u0634\u0627\u0645 \u062d\u062c\u0627\u0648\u064a", "amenity": "school", "name": "\u0627\u0644\u0645\u062f\u0631\u0633\u0629 \u0627\u0644\u0635\u0646\u0627\u0639\u064a\u0629", "name:en": "Industrial School"}}, {"type": "node", "id": 11113805615, "lat": 32.2238373, "lon": 35.2992056, "tags": {"amenity": "school", "name": "\u0645\u062f\u0631\u0633\u0629 \u0627\u0644\u062e\u0631\u0627\u0632 \u0644\u062a\u0639\u0644\u064a\u0645 \u0627\u0644\u0633\u064a\u0627\u0642\u0647", "phone": "0599335260"}}]}