{"version": 0.6, "generator": "Overpass API 0.7.62.5 1bd436f1", "osm3s": {"timestamp_osm_base": "2025-05-25T07:55:59Z", "copyright": "The data included in this document is from www.openstreetmap.org. The data is made available under ODbL."}, "elements": [{"type": "node", "id": 431915674, "lat": 32.2206853, "lon": 35.2963109, "tags": {"amenity": "arts_centre", "name": "Dar Alfonon", "name:ar": "\u062f\u0627\u0631 \u0627\u0644\u0641\u0646\u0648\u0646 \u0648\u0627\u0644\u062a\u0631\u0627\u062b"}}, {"type": "node", "id": 431923237, "lat": 32.2263293, "lon": 35.3031367, "tags": {"amenity": "pharmacy", "dispensing": "yes", "name": "\u0635\u064a\u062f\u0644\u064a\u0629 \u0627\u0645\u0627\u0646\u062f\u0627", "name:ar": "\u0635\u064a\u062f\u0644\u064a\u0629 \u0633\u0646\u0627", "name:en": "Amanda Pharmacy"}}, {"type": "node", "id": 431950920, "lat": 32.2138636, "lon": 35.2891115, "tags": {"amenity": "restaurant", "name": "Al Ghawi", "name:ar": "\u0645\u0637\u0639\u0645 \u0627\u0644\u063a\u0627\u0648\u064a"}}, {"type": "node", "id": 431970468, "lat": 32.2188001, "lon": 35.2731688, "tags": {"addr:street": "isso street", "amenity": "pharmacy", "dispensing": "no", "name": "Fadi", "name:ar": "\u0635\u064a\u062f\u0644\u064a\u0647 \u0641\u0627\u062f\u064a"}}, {"type": "node", "id": 431989567, "lat": 32.2233277, "lon": 35.2978401, "tags": {"amenity": "doctors", "name": "Marzoq Mohammad Al Sahili", "name:ar": "\u0645\u0646\u0632\u0644 \u0648\u0639\u064a\u0627\u062f\u0629 \u0627\u0644\u062f\u0643\u062a\u0648\u0631 \u0645\u0631\u0632\u0648\u0642 \u0645\u062d\u0645\u062f \u0627\u0644\u0635\u0627\u0644\u062d\u064a"}}, {"type": "node", "id": 431995595, "lat": 32.2214723, "lon": 35.2978233, "tags": {"amenity": "taxi", "name": "Sabra", "name:ar": "\u062a\u0643\u0633\u064a \u0635\u0628\u0631\u0629"}}, {"type": "node", "id": 432009545, "lat": 32.2144388, "lon": 35.2730765, "tags": {"amenity": "taxi", "name": "Diana", "name:ar": "\u0645\u0643\u062a\u0628 \u062a\u0643\u0633\u064a \u062f\u064a\u0627\u0646\u0627"}}, {"type": "node", "id": 432052667, "lat": 32.213429, "lon": 35.3030347, "tags": {"amenity": "doctors", "name": "Dr. Mohammed Al-Shobaki clinic", "name:ar": "\u0639\u064a\u0627\u062f\u0629 \u0627\u0644\u062f\u0643\u062a\u0648\u0631 \u0645\u062d\u0645\u062f \u0627\u0644\u0634\u0648\u0628\u0643\u064a"}}, {"type": "node", "id": 432059864, "lat": 32.2224467, "lon": 35.2759853, "tags": {"amenity": "townhall", "name": "Zawata Village Council", "name:ar": "\u0645\u062c\u0645\u0639 \u062e\u062f\u0645\u0627\u062a \u0645\u062c\u0644\u0633 \u0642\u0631\u0648\u064a \u0632\u0648\u0627\u062a\u0627"}}, {"type": "node", "id": 432069145, "lat": 32.2197672, "lon": 35.2767787, "tags": {"amenity": "townhall", "name": "Mosa Family Hall", "name:ar": "\u062f\u064a\u0648\u0627\u0646 \u0627\u0644 \u0645\u0648\u0633\u0649"}}, {"type": "node", "id": 432074255, "lat": 32.2142716, "lon": 35.2759304, "tags": {"amenity": "police", "name": "Al Mokat'a", "name:ar": "\u0627\u0644\u0645\u0642\u0627\u0637\u0639\u0647"}}, {"type": "node", "id": 432089348, "lat": 32.2268042, "lon": 35.302602, "tags": {"amenity": "taxi", "name": "Majdoleen", "name:ar": "\u0645\u0643\u062a\u0628 \u062a\u0643\u0633\u064a \u0645\u062c\u062f\u0648\u0644\u064a\u0646"}}, {"type": "node", "id": 432105924, "lat": 32.2153463, "lon": 35.2746431, "tags": {"amenity": "car_rental", "name": "\u0627\u0644\u0639\u062f\u064a\u0644\u064a \u0644\u062a\u0623\u062c\u064a\u0631 \u0644\u0633\u064a\u0627\u0631\u0627\u062a"}}, {"type": "node", "id": 432132006, "lat": 32.2157181, "lon": 35.2740043, "tags": {"amenity": "pharmacy", "dispensing": "no", "name": "Al Saraya Pharmacy", "name:ar": "\u0635\u064a\u062f\u0644\u064a\u0629 \u0627\u0644\u0633\u0631\u0627\u064a\u0627"}}, {"type": "node", "id": 432138954, "lat": 32.2177575, "lon": 35.293013, "tags": {"amenity": "pharmacy", "name": "Al Mostkbl", "name:ar": "\u0635\u064a\u062f\u0644\u064a\u0629 \u0627\u0644\u0645\u0633\u062a\u0642\u0628\u0644", "name:en": "Al-Mostaqbal Pharmacy", "name:it": "Al Mostaqbal"}}, {"type": "node", "id": 432156710, "lat": 32.2127027, "lon": 35.2971443, "tags": {"amenity": "fire_station", "name": "Nablus", "name:ar": "\u0627\u0637\u0641\u0627\u0626\u064a\u0629 \u0646\u0627\u0628\u0644\u0633"}}, {"type": "node", "id": 3599932589, "lat": 32.21962, "lon": 35.2970981}, {"type": "node", "id": 3599932590, "lat": 32.219768, "lon": 35.2969396}, {"type": "node", "id": 3599932591, "lat": 32.2198216, "lon": 35.2970096}, {"type": "node", "id": 3599932592, "lat": 32.2198748, "lon": 35.2969527}, {"type": "node", "id": 3599932593, "lat": 32.2198924, "lon": 35.2974538}, {"type": "node", "id": 3599932594, "lat": 32.2200936, "lon": 35.2972385}, {"type": "node", "id": 4117028002, "lat": 32.2150634, "lon": 35.2834985, "tags": {"addr:street": "Amman Street", "amenity": "doctors", "name": "Dr. Najeh Numoor", "phone": "+970599702158"}}, {"type": "node", "id": 4226309090, "lat": 32.2175241, "lon": 35.2968333, "tags": {"amenity": "theatre", "name": "\u0627\u0644\u0635\u0627\u0644\u0629 \u0627\u0644\u0623\u0644\u0645\u0627\u0646\u064a\u0629"}}, {"type": "node", "id": 4333279889, "lat": 32.2146256, "lon": 35.28919, "tags": {"amenity": "fast_food", "name": "\u0628\u0633\u0627\u0645 \u0627\u0644\u0634\u064a\u062e \u064a\u0627\u0633\u064a\u0646", "name:en": "Bassam Sheikh Yassin"}}, {"type": "node", "id": 4428020789, "lat": 32.2203767, "lon": 35.2963848, "tags": {"amenity": "restaurant", "name": "\u062f\u0648\u0646 \u0628\u064a\u062a\u0632\u0627", "name:ar": "\u062f\u0648\u0646 \u0628\u064a\u062a\u0632\u0627"}}, {"type": "node", "id": 4526873589, "lat": 32.2152458, "lon": 35.2776342, "tags": {"amenity": "pharmacy", "name": "\u0635\u064a\u062f\u0644\u064a\u0629 \u0627\u0644\u0639\u0631\u064a\u0636", "name:ar": "\u0635\u064a\u062f\u0644\u064a\u0629 \u0627\u0644\u0639\u0631\u064a\u0636", "name:en": "Areed Pharmacy"}}, {"type": "node", "id": 4532702589, "lat": 32.221593, "lon": 35.2978655, "tags": {"amenity": "pharmacy", "name": "\u0635\u064a\u062f\u0644\u064a\u0629 \u0627\u0644\u0623\u0642\u0635\u0649", "name:ar": "\u0635\u064a\u062f\u0644\u064a\u0629 \u0627\u0644\u0623\u0642\u0635\u0649", "name:en": "Al-Aqsa Pharmacy"}}, {"type": "node", "id": 4653230493, "lat": 32.2159161, "lon": 35.2769472, "tags": {"amenity": "pharmacy", "name": "\u0645\u0633\u062a\u0648\u062f\u0639 \u0635\u064a\u062f\u0644\u064a\u062a\u0647 \u0627\u0644\u0639\u0631\u064a\u0636", "name:ar": "\u0645\u0633\u062a\u0648\u062f\u0639 \u0635\u064a\u062f\u0644\u064a\u062a\u0647 \u0627\u0644\u0639\u0631\u064a\u0636", "name:en": "Al areed pharmacy warehouse"}}, {"type": "node", "id": 4653899994, "lat": 32.2149791, "lon": 35.2802834, "tags": {"amenity": "bar", "name": "\u0645\u0633\u062a\u0648\u062f\u0639 \u0633\u0648\u0628\u0631 \u0645\u0627\u0631\u0643\u062a \u0623\u064a\u0627\u062f \u062c\u0628\u0631 ( 2 )", "name:ar": "\u0645\u0633\u062a\u0648\u062f\u0639 \u0633\u0648\u0628\u0631 \u0645\u0627\u0631\u0643\u062a \u0623\u064a\u0627\u062f \u062c\u0628\u0631 ( 2 )", "name:en": "Warehouse supermarkets Ayad Jabr (2)"}}, {"type": "node", "id": 4870347823, "lat": 32.227079, "lon": 35.3001698, "tags": {"amenity": "shelter"}}, {"type": "node", "id": 4921706121, "lat": 32.2118149, "lon": 35.2848936, "tags": {"amenity": "pharmacy", "name": "\u0648\u0632\u0627\u0631\u0629 \u0627\u0644\u0635\u062d\u0629 - \u0628\u0644\u0627\u0637\u0629 \u0627\u0644\u0628\u0644\u062f", "name:ar": "\u0648\u0632\u0627\u0631\u0629 \u0627\u0644\u0635\u062d\u0629 - \u0628\u0644\u0627\u0637\u0629 \u0627\u0644\u0628\u0644\u062f", "name:en": "Ministry of Health - Tile Country"}}, {"type": "node", "id": 5181767222, "lat": 32.2154955, "lon": 35.2738683, "tags": {"amenity": "pharmacy", "name": "\u0635\u064a\u062f\u0644\u064a\u0629 \u0646\u0648\u0631\u0629", "name:en": "Noora pharmacy"}}, {"type": "node", "id": 5345318922, "lat": 32.2141885, "lon": 35.2878013, "tags": {"amenity": "fast_food", "name:en": "Cfc"}}, {"type": "node", "id": 5372441322, "lat": 32.2155135, "lon": 35.291674, "tags": {"amenity": "bar", "name": "\u0645\u062d\u0644 \u062d\u062f\u064a\u062f \u0627\u0644\u0639\u0634\u064a\u0628\u064a"}}, {"type": "node", "id": 5405719421, "lat": 32.2183596, "lon": 35.2743973, "tags": {"addr:street": "Ibn Rushed Street", "amenity": "cafe", "cuisine": "arab;burger;cake;coffee_shop;grill;ice_cream;italian;lebanese;mexican;pizza;sandwich;sausage", "internet_access": "wlan", "name": "\u0645\u0642\u0647\u0649 \u0627\u0644\u0623\u0635\u062f\u0642\u0627\u0621", "name:en": "Friends cafe", "opening_hours": "Mo-Su 09:00-01:00", "operator": "Yazan Ghazal", "phone": "0595161621"}}, {"type": "node", "id": 8360721318, "lat": 32.2123551, "lon": 35.298406, "tags": {"amenity": "car_rental", "name": "\u0627\u0644\u0627\u063a\u0628\u0631"}}, {"type": "node", "id": 11888397269, "lat": 32.2174634, "lon": 35.2802643, "tags": {"addr:street": "\u062e\u0644\u0629 \u0627\u0644\u0627\u064a\u0645\u0627\u0646", "amenity": "community_centre", "name": "\u062c\u0645\u0639\u064a\u0629 \u0627\u0644\u0647\u0644\u0627\u0644 \u0627\u0644\u0627\u062d\u0645\u0631 \u0627\u0644\u0641\u0644\u0633\u0637\u064a\u0646\u064a \u062f\u0627\u0631 \u0627\u0644\u0645\u0633\u0646\u064a\u0646"}}, {"type": "way", "id": 354235064, "nodes": [3599932592, 3599932594, 3599932593, 3599932589, 3599932590, 3599932591, 3599932592], "tags": {"amenity": "community_centre", "building": "yes", "name": "\u0646\u0627\u062f\u064a \u0634\u0628\u0627\u0628 \u0639\u0633\u0643\u0631", "name:ar": "\u0646\u0627\u062f\u064a \u0634\u0628\u0627\u0628 \u0639\u0633\u0643\u0631"}}]}